ONEWEB-0201             
1 48241U 21031AH  24023.23533554 -.00000052  00000+0 -17579-3 0  9997
2 48241  87.8973 104.0812 0001726  98.7606 261.3720 13.14504441133309
ONEWEB-0207             
1 48242U 21031AJ  24023.29083862  .00000271  00000+0  69746-3 0  9990
2 48242  87.8971 104.0382 0001507 106.3277 253.8018 13.14504824133229
ONEWEB-0208             
1 48243U 21031AK  24023.57707495 -.00000013  00000+0 -70535-4 0  9992
2 48243  87.8968 103.9964 0001779  94.8598 265.2735 13.14502022133274
ONEWEB-0200             
1 48244U 21031AL  24023.23613358 -.00000049  00000+0 -16704-3 0  9996
2 48244  87.8970 104.0636 0001848  94.5767 265.5573 13.14504039133158
ONEWEB-0217             
1 48245U 21031AM  24023.25198337 -.00000148  00000+0 -43433-3 0  9993
2 48245  87.8968 104.0450 0001988  90.1739 269.9618 13.14501273133106
ONEWEB-0211             
1 48767U 21045A   24023.67517430  .00000099  00000+0  22968-3 0  9995
2 48767  87.8967  73.4551 0001836  97.1788 262.9551 13.15548877130432
ONEWEB-0223             
1 48768U 21045B   24023.16495293 -.00000053  00000+0 -17474-3 0  9990
2 48768  87.8970  73.5597 0002656 100.2817 259.8613 13.15547816129229
ONEWEB-0230             
1 48769U 21045C   24023.13642594  .00000191  00000+0  47271-3 0  9995
2 48769  87.8969  73.6379 0001873 102.7689 257.3651 13.15554699129481
ONEWEB-0237             
1 48770U 21045D   24023.65774477  .00000230  00000+0  57732-3 0  9997
2 48770  87.8973  73.4562 0002324 100.5377 259.6015 13.15548344130405
ONEWEB-0235             
1 48771U 21045E   24023.63238749 -.00000023  00000+0 -94306-4 0  9994
2 48771  87.8964  73.4831 0002721 106.4516 253.6913 13.15549251130382
ONEWEB-0242             
1 48772U 21045F   24023.62605242 -.00000102  00000+0 -30454-3 0  9991
2 48772  87.8964  73.4740 0002074 103.0895 257.0467 13.15548788130438
ONEWEB-0241             
1 48773U 21045G   24023.68943492 -.00000011  00000+0 -63662-4 0  9997
2 48773  87.8975  73.4946 0002262  90.8887 269.2502 13.15548886130357
ONEWEB-0243             
1 48774U 21045H   24023.49294554  .00000088  00000+0  19928-3 0  9992
2 48774  87.8976  73.4919 0002314 104.9394 255.1992 13.15549446130357
ONEWEB-0222             
1 48775U 21045J   24023.63556028  .00000631  00000+0  16430-2 0  9994
2 48775  87.8962  73.4861 0002214  95.1605 264.9778 13.15543646130406
ONEWEB-0244             
1 48776U 21045K   24023.65458103  .00000178  00000+0  43948-3 0  9993
2 48776  87.8961  73.4642 0001898 104.2781 255.8560 13.15553063130971
ONEWEB-0247             
1 48777U 21045L   24023.49928807  .00000104  00000+0  24165-3 0  9998
2 48777  87.8977  73.5242 0002992 106.6277 253.5182 13.15551026130408
ONEWEB-0245             
1 48778U 21045M   24023.19030618  .00000142  00000+0  34368-3 0  9998
2 48778  87.8965  73.5852 0002072  91.7602 268.3765 13.15547044129200
ONEWEB-0229             
1 48779U 21045N   24023.18554089  .00000066  00000+0  14113-3 0  9992
2 48779  87.8965  73.5777 0002081 104.1745 255.9617 13.15550435129233
ONEWEB-0228             
1 48780U 21045P   24023.65694164  .00000200  00000+0  49631-3 0  9998
2 48780  87.8963  73.4616 0001914  98.3652 261.7695 13.15551480130345
ONEWEB-0232             
1 48781U 21045Q   24023.19348629  .00000946  00000+0  24791-2 0  9996
2 48781  87.8956  73.5821 0001830 100.6699 259.4638 13.15549827129477
ONEWEB-0231             
1 48782U 21045R   24023.62762555 -.00000167  00000+0 -47831-3 0  9991
2 48782  87.8973  73.5034 0002175 100.9136 259.2239 13.15549332130361
ONEWEB-0234             
1 48783U 21045S   24023.49531980  .00000074  00000+0  16334-3 0  9992
2 48783  87.8967  73.5005 0001420  51.7167 308.4091 13.15548950130472
ONEWEB-0238             
1 48784U 21045T   24023.67754985  .00000040  00000+0  71689-4 0  9993
2 48784  87.8967  73.4828 0001737  94.1336 265.9992 13.15547838130397
ONEWEB-0240             
1 48785U 21045U   24023.68705661  .00000011  00000+0 -52566-5 0  9995
2 48785  87.8965  73.4490 0002296  91.6318 268.5076 13.15548739130410
ONEWEB-0246             
1 48786U 21045V   24023.14910193  .00000027  00000+0  37479-4 0  9996
2 48786  87.8968  73.5587 0002309 101.3518 258.7872 13.15546751129097
ONEWEB-0210             
1 48787U 21045W   24023.19980875  .00000219  00000+0  54841-3 0  9990
2 48787  87.8966  73.5554 0002367 113.8798 246.2580 13.15547502129141
ONEWEB-0214             
1 48788U 21045X   24023.66565861  .00000179  00000+0  44256-3 0  9991
2 48788  87.8967  73.4511 0002285 115.5140 244.6226 13.15549186130291
ONEWEB-0221             
1 48789U 21045Y   24023.21566147  .00000103  00000+0  23950-3 0  9996
2 48789  87.8968  73.5548 0002161  97.2279 262.9097 13.15548090129207
ONEWEB-0213             
1 48790U 21045Z   24023.20456391  .00000191  00000+0  47389-3 0  9995
2 48790  87.8967  73.5735 0002302  99.5666 260.5725 13.15547358129262
ONEWEB-0212             
1 48791U 21045AA  24023.18159627  .00000040  00000+0  71335-4 0  9997
2 48791  87.8968  73.5582 0001788  94.9140 265.2195 13.15548752129258
ONEWEB-0227             
1 48792U 21045AB  24023.18078684 -.00000346  00000+0 -95447-3 0  9991
2 48792  87.8966  73.5754 0001992  96.3850 263.7507 13.15547635129203
ONEWEB-0226             
1 48793U 21045AC  24023.17444999 -.00000082  00000+0 -25315-3 0  9991
2 48793  87.8964  73.5840 0002357 102.5750 257.5644 13.15546834129172
ONEWEB-0224             
1 48794U 21045AD  24023.21408348  .00000135  00000+0  32406-3 0  9991
2 48794  87.8973  73.5911 0002493  83.3088 276.8326 13.15547401129108
ONEWEB-0233             
1 48795U 21045AE  24023.21011722  .00000239  00000+0  60027-3 0  9993
2 48795  87.8970  73.6053 0002048 104.9100 255.2257 13.15549470129129
ONEWEB-0190             
1 48796U 21045AF  24023.66250051  .00000259  00000+0  65506-3 0  9992
2 48796  87.8963  73.4767 0003026 100.4650 259.6821 13.15548569130372
ONEWEB-0236             
1 48797U 21045AG  24023.14752673  .00000053  00000+0  10677-3 0  9994
2 48797  87.8976  73.5678 0001972  97.0878 263.0477 13.15549216129071
ONEWEB-0248             
1 48798U 21045AH  24023.69260417 -.00000002  00000+0 -39397-4 0  9992
2 48798  87.8964  73.4620 0002602  87.7294 272.4135 13.15547966130420
ONEWEB-0225             
1 48799U 21045AJ  24023.63872525  .00000058  00000+0  11879-3 0  9999
2 48799  87.8958  73.4786 0002400  95.5263 264.6141 13.15549230130444
ONEWEB-0215             
1 48800U 21045AK  24023.68467578 -.00000068  00000+0 -21447-3 0  9990
2 48800  87.8968  73.4514 0002879  93.7928 266.3532 13.15545269130301
ONEWEB-0216             
1 48801U 21045AL  24023.16177473 -.00000044  00000+0 -15063-3 0  9997
2 48801  87.8966  73.5951 0002024 109.0380 251.0970 13.15549651129125
ONEWEB-0239             
1 48802U 21045AM  24023.62288596 -.00000093  00000+0 -28126-3 0  9996
2 48802  87.8974  73.4657 0002762  89.9529 270.1918 13.15547341130363
ONEWEB-0249             
1 48967U 21060A   24023.11114013 -.00000026  00000+0 -10224-3 0  9997
2 48967  87.9044  43.1299 0001887  94.3335 265.8011 13.16592582124335
ONEWEB-0250             
1 48968U 21060B   24023.49589507  .00000138  00000+0  32838-3 0  9990
2 48968  87.9044  43.0373 0002128  87.8659 272.2715 13.16596891125659
ONEWEB-0252             
1 48970U 21060D   24023.59878576 -.00000033  00000+0 -11903-3 0  9997
2 48970  87.9043  43.0258 0001872  95.4416 264.6928 13.16592228125734
ONEWEB-0253             
1 48971U 21060E   24023.05572234  .00000113  00000+0  26273-3 0  9994
2 48971  87.9038  43.1491 0002173  94.0503 266.0876 13.16596223124305
ONEWEB-0254             
1 48972U 21060F   24023.14122145 -.00000083  00000+0 -25082-3 0  9992
2 48972  87.9045  43.1073 0002167  92.4119 267.7260 13.16594540124314
ONEWEB-0255             
1 48973U 21060G   24023.10323325  .00000055  00000+0  11137-3 0  9995
2 48973  87.9045  43.1502 0001865  90.8667 269.2678 13.16594538124380
ONEWEB-0256             
1 48974U 21060H   24023.12934476  .00000058  00000+0  11862-3 0  9991
2 48974  87.9044  43.1435 0001675  95.4827 264.6495 13.16595728124358
ONEWEB-0257             
1 48975U 21060J   24023.08581841 -.00000014  00000+0 -70872-4 0  9992
2 48975  87.9046  43.1269 0001926  98.9023 261.2326 13.16593587124303
ONEWEB-0258             
1 48976U 21060K   24023.54336703 -.00000259  00000+0 -71179-3 0  9990
2 48976  87.9044  43.0650 0001871  90.2247 269.9098 13.16593394125653
ONEWEB-0259             
1 48977U 21060L   24023.46104837  .00000037  00000+0  62694-4 0  9998
2 48977  87.9046  43.0663 0002068  85.4349 274.7018 13.16596473125688
ONEWEB-0260             
1 48978U 21060M   24023.45471009  .00000019  00000+0  16757-4 0  9995
2 48978  87.9039  43.0967 0001774 110.5964 249.5357 13.16591498125659
ONEWEB-0261             
1 48979U 21060N   24023.49745656  .00000124  00000+0  28948-3 0  9993
2 48979  87.9041  43.0771 0002419  98.3256 261.8149 13.16595086125732
ONEWEB-0262             
1 48980U 21060P   24023.47846769  .00000112  00000+0  26038-3 0  9995
2 48980  87.9044  43.0491 0002303  84.7123 275.4271 13.16593874125695
ONEWEB-0263             
1 48981U 21060Q   24023.05415313  .00000112  00000+0  25985-3 0  9997
2 48981  87.9043  43.1453 0002369  92.9043 267.2359 13.16594513124302
ONEWEB-0264             
1 48982U 21060R   24023.47134024  .00000038  00000+0  65423-4 0  9990
2 48982  87.9040  43.0749 0001904  93.3309 266.8040 13.16594978125657
ONEWEB-0266             
1 48984U 21060T   24023.49270537  .00000131  00000+0  30978-3 0  9994
2 48984  87.9044  43.0523 0001754  89.4220 270.7112 13.16593491125657
ONEWEB-0267             
1 48985U 21060U   24023.42779476  .00000176  00000+0  42576-3 0  9990
2 48985  87.9044  43.0659 0002175  99.7059 260.4318 13.16592691125644
ONEWEB-0268             
1 48986U 21060V   24023.54813397 -.00000250  00000+0 -68823-3 0  9993
2 48986  87.9044  43.0477 0002129 110.3960 249.7400 13.16594471125924
